CTC2_L_00331001-01
1 21522U 25198IP  26037.47793981  .00000000  00000+0  00000-0 0  9992
2 21522  70.0000   0.0000 0000000   0.0000   0.0000 13.56072426    18
CTC2_L_00331001-02
1 21523U 23909HL  26037.47793981  .00000000  00000+0  00000-0 0  9991
2 21523  70.0000   0.0000 0000000   0.0000  90.0000 13.56072426    18
CTC2_L_00331001-03
1 21524U 22094XU  26037.47793981  .00000000  00000+0  00000-0 0  9996
2 21524  70.0000   0.0000 0000000   0.0000 180.0000 13.56072426    19
CTC2_L_00331001-04
1 21525U 25019SZ  26037.47793981  .00000000  00000+0  00000-0 0  9997
2 21525  70.0000   0.0000 0000000   0.0000 270.0000 13.56072426    10
CTC2_L_00331002-01
1 21526U 24732QQ  26037.47793981  .00000000  00000+0  00000-0 0  9999
2 21526  70.0000  12.0000 0000000   0.0000  12.0000 13.56072426    18
CTC2_L_00331002-02
1 21527U 22053LO  26037.47793981  .00000000  00000+0  00000-0 0  9994
2 21527  70.0000  12.0000 0000000   0.0000 102.0000 13.56072426    19
CTC2_L_00331002-03
1 21528U 26126VZ  26037.47793981  .00000000  00000+0  00000-0 0  9990
2 21528  70.0000  12.0000 0000000   0.0000 192.0000 13.56072426    19
CTC2_L_00331002-04
1 21529U 26486OR  26037.47793981  .00000000  00000+0  00000-0 0  9990
2 21529  70.0000  12.0000 0000000   0.0000 282.0000 13.56072426    10
CTC2_L_00331003-01
1 21530U 22110VW  26037.47793981  .00000000  00000+0  00000-0 0  9992
2 21530  70.0000  24.0000 0000000   0.0000  24.0000 13.56072426    19
CTC2_L_00331003-02
1 21531U 26106KY  26037.47793981  .00000000  00000+0  00000-0 0  9992
2 21531  70.0000  24.0000 0000000   0.0000 114.0000 13.56072426    10
CTC2_L_00331003-03
1 21532U 24159QA  26037.47793981  .00000000  00000+0  00000-0 0  9999
2 21532  70.0000  24.0000 0000000   0.0000 204.0000 13.56072426    11
CTC2_L_00331003-04
1 21533U 26376VH  26037.47793981  .00000000  00000+0  00000-0 0  9993
2 21533  70.0000  24.0000 0000000   0.0000 294.0000 13.56072426    11
CTC2_L_00331004-01
1 21534U 25244KY  26037.47793981  .00000000  00000+0  00000-0 0  9997
2 21534  70.0000  36.0000 0000000   0.0000  36.0000 13.56072426    19
CTC2_L_00331004-02
1 21535U 23428DZ  26037.47793981  .00000000  00000+0  00000-0 0  9990
2 21535  70.0000  36.0000 0000000   0.0000 126.0000 13.56072426    10
CTC2_L_00331004-03
1 21536U 24572XZ  26037.47793981  .00000000  00000+0  00000-0 0  9992
2 21536  70.0000  36.0000 0000000   0.0000 216.0000 13.56072426    11
CTC2_L_00331004-04
1 21537U 25126ZD  26037.47793981  .00000000  00000+0  00000-0 0  9999
2 21537  70.0000  36.0000 0000000   0.0000 306.0000 13.56072426    12
CTC2_L_00331005-01
1 21538U 25974EX  26037.47793981  .00000000  00000+0  00000-0 0  9991
2 21538  70.0000  48.0000 0000000   0.0000  48.0000 13.56072426    19
CTC2_L_00331005-02
1 21539U 24844GJ  26037.47793981  .00000000  00000+0  00000-0 0  9997
2 21539  70.0000  48.0000 0000000   0.0000 138.0000 13.56072426    10
CTC2_L_00331005-03
1 21540U 26009CO  26037.47793981  .00000000  00000+0  00000-0 0  9994
2 21540  70.0000  48.0000 0000000   0.0000 228.0000 13.56072426    12
CTC2_L_00331005-04
1 21541U 22318OI  26037.47793981  .00000000  00000+0  00000-0 0  9994
2 21541  70.0000  48.0000 0000000   0.0000 318.0000 13.56072426    13
CTC2_L_00331006-01
1 21542U 25028LQ  26037.47793981  .00000000  00000+0  00000-0 0  9996
2 21542  70.0000  60.0000 0000000   0.0000  60.0000 13.56072426    12
CTC2_L_00331006-02
1 21543U 22824FD  26037.47793981  .00000000  00000+0  00000-0 0  9998
2 21543  70.0000  60.0000 0000000   0.0000 150.0000 13.56072426    13
CTC2_L_00331006-03
1 21544U 26568SM  26037.47793981  .00000000  00000+0  00000-0 0  9998
2 21544  70.0000  60.0000 0000000   0.0000 240.0000 13.56072426    14
CTC2_L_00331006-04
1 21545U 25232RN  26037.47793981  .00000000  00000+0  00000-0 0  9996
2 21545  70.0000  60.0000 0000000   0.0000 330.0000 13.56072426    15
CTC2_L_00331007-01
1 21546U 23339UF  26037.47793981  .00000000  00000+0  00000-0 0  9993
2 21546  70.0000  72.0000 0000000   0.0000  72.0000 13.56072426    12
CTC2_L_00331007-02
1 21547U 22351SD  26037.47793981  .00000000  00000+0  00000-0 0  9997
2 21547  70.0000  72.0000 0000000   0.0000 162.0000 13.56072426    13
CTC2_L_00331007-03
1 21548U 25843CD  26037.47793981  .00000000  00000+0  00000-0 0  9997
2 21548  70.0000  72.0000 0000000   0.0000 252.0000 13.56072426    14
CTC2_L_00331007-04
1 21549U 26288ZU  26037.47793981  .00000000  00000+0  00000-0 0  9992
2 21549  70.0000  72.0000 0000000   0.0000 342.0000 13.56072426    15
CTC2_L_00331008-01
1 21550U 26992OK  26037.47793981  .00000000  00000+0  00000-0 0  9996
2 21550  70.0000  84.0000 0000000   0.0000  84.0000 13.56072426    13
CTC2_L_00331008-02
1 21551U 24527KO  26037.47793981  .00000000  00000+0  00000-0 0  9999
2 21551  70.0000  84.0000 0000000   0.0000 174.0000 13.56072426    14
CTC2_L_00331008-03
1 21552U 26576M   26037.47793981  .00000000  00000+0  00000-0 0  9996
2 21552  70.0000  84.0000 0000000   0.0000 264.0000 13.56072426    15
CTC2_L_00331008-04
1 21553U 26418PL  26037.47793981  .00000000  00000+0  00000-0 0  9992
2 21553  70.0000  84.0000 0000000   0.0000 354.0000 13.56072426    16
CTC2_L_00331009-01
1 21554U 26531NS  26037.47793981  .00000000  00000+0  00000-0 0  9999
2 21554  70.0000  96.0000 0000000   0.0000  96.0000 13.56072426    13
CTC2_L_00331009-02
1 21555U 23600BY  26037.47793981  .00000000  00000+0  00000-0 0  9994
2 21555  70.0000  96.0000 0000000   0.0000 186.0000 13.56072426    14
CTC2_L_00331009-03
1 21556U 22933EW  26037.47793981  .00000000  00000+0  00000-0 0  9993
2 21556  70.0000  96.0000 0000000   0.0000 276.0000 13.56072426    15
CTC2_L_00331009-04
1 21557U 26936HH  26037.47793981  .00000000  00000+0  00000-0 0  9991
2 21557  70.0000  96.0000 0000000   0.0000   6.0000 13.56072426    17
CTC2_L_00331010-01
1 21558U 26367BS  26037.47793981  .00000000  00000+0  00000-0 0  9990
2 21558  70.0000 108.0000 0000000   0.0000 108.0000 13.56072426    15
CTC2_L_00331010-02
1 21559U 24724TH  26037.47793981  .00000000  00000+0  00000-0 0  9996
2 21559  70.0000 108.0000 0000000   0.0000 198.0000 13.56072426    15
CTC2_L_00331010-03
1 21560U 25276XO  26037.47793981  .00000000  00000+0  00000-0 0  9991
2 21560  70.0000 108.0000 0000000   0.0000 288.0000 13.56072426    17
CTC2_L_00331010-04
1 21561U 25773CT  26037.47793981  .00000000  00000+0  00000-0 0  9994
2 21561  70.0000 108.0000 0000000   0.0000  18.0000 13.56072426    19
CTC2_L_00331011-01
1 21562U 23190KJ  26037.47793981  .00000000  00000+0  00000-0 0  9996
2 21562  70.0000 120.0000 0000000   0.0000 120.0000 13.56072426    18
CTC2_L_00331011-02
1 21563U 23796XT  26037.47793981  .00000000  00000+0  00000-0 0  9999
2 21563  70.0000 120.0000 0000000   0.0000 210.0000 13.56072426    19
CTC2_L_00331011-03
1 21564U 25106YS  26037.47793981  .00000000  00000+0  00000-0 0  9997
2 21564  70.0000 120.0000 0000000   0.0000 300.0000 13.56072426    10
CTC2_L_00331011-04
1 21565U 25610GD  26037.47793981  .00000000  00000+0  00000-0 0  9998
2 21565  70.0000 120.0000 0000000   0.0000  30.0000 13.56072426    11
CTC2_L_00331012-01
1 21566U 23747VC  26037.47793981  .00000000  00000+0  00000-0 0  9998
2 21566  70.0000 132.0000 0000000   0.0000 132.0000 13.56072426    18
CTC2_L_00331012-02
1 21567U 23205CP  26037.47793981  .00000000  00000+0  00000-0 0  9998
2 21567  70.0000 132.0000 0000000   0.0000 222.0000 13.56072426    19
CTC2_L_00331012-03
1 21568U 25310GG  26037.47793981  .00000000  00000+0  00000-0 0  9998
2 21568  70.0000 132.0000 0000000   0.0000 312.0000 13.56072426    10
CTC2_L_00331012-04
1 21569U 22715H   26037.47793981  .00000000  00000+0  00000-0 0  9995
2 21569  70.0000 132.0000 0000000   0.0000  42.0000 13.56072426    11
CTC2_L_00331013-01
1 21570U 24331KZ  26037.47793981  .00000000  00000+0  00000-0 0  9993
2 21570  70.0000 144.0000 0000000   0.0000 144.0000 13.56072426    19
CTC2_L_00331013-02
1 21571U 24260OD  26037.47793981  .00000000  00000+0  00000-0 0  9995
2 21571  70.0000 144.0000 0000000   0.0000 234.0000 13.56072426    10
CTC2_L_00331013-03
1 21572U 23682OX  26037.47793981  .00000000  00000+0  00000-0 0  9993
2 21572  70.0000 144.0000 0000000   0.0000 324.0000 13.56072426    11
CTC2_L_00331013-04
1 21573U 24714BI  26037.47793981  .00000000  00000+0  00000-0 0  9991
2 21573  70.0000 144.0000 0000000   0.0000  54.0000 13.56072426    12
CTC2_L_00331014-01
1 21574U 23701PK  26037.47793981  .00000000  00000+0  00000-0 0  9997
2 21574  70.0000 156.0000 0000000   0.0000 156.0000 13.56072426    19
CTC2_L_00331014-02
1 21575U 22264NT  26037.47793981  .00000000  00000+0  00000-0 0  9991
2 21575  70.0000 156.0000 0000000   0.0000 246.0000 13.56072426    10
CTC2_L_00331014-03
1 21576U 22740FK  26037.47793981  .00000000  00000+0  00000-0 0  9991
2 21576  70.0000 156.0000 0000000   0.0000 336.0000 13.56072426    11
CTC2_L_00331014-04
1 21577U 25940PR  26037.47793981  .00000000  00000+0  00000-0 0  9997
2 21577  70.0000 156.0000 0000000   0.0000  66.0000 13.56072426    12
CTC2_L_00331015-01
1 21578U 23298CD  26037.47793981  .00000000  00000+0  00000-0 0  9992
2 21578  70.0000 168.0000 0000000   0.0000 168.0000 13.56072426    19
CTC2_L_00331015-02
1 21579U 25373OK  26037.47793981  .00000000  00000+0  00000-0 0  9999
2 21579  70.0000 168.0000 0000000   0.0000 258.0000 13.56072426    10
CTC2_L_00331015-03
1 21580U 26981DN  26037.47793981  .00000000  00000+0  00000-0 0  9997
2 21580  70.0000 168.0000 0000000   0.0000 348.0000 13.56072426    12
CTC2_L_00331015-04
1 21581U 22034FK  26037.47793981  .00000000  00000+0  00000-0 0  9993
2 21581  70.0000 168.0000 0000000   0.0000  78.0000 13.56072426    13
CTC2_L_00331016-01
1 21582U 25970VI  26037.47793981  .00000000  00000+0  00000-0 0  9996
2 21582  70.0000 180.0000 0000000   0.0000 180.0000 13.56072426    12
CTC2_L_00331016-02
1 21583U 24221NJ  26037.47793981  .00000000  00000+0  00000-0 0  9995
2 21583  70.0000 180.0000 0000000   0.0000 270.0000 13.56072426    13
